<?xml version="1.0" encoding="UTF-8"?>
<kml xmlns="http://www.opengis.net/kml/2.2">
  <Document>
    <name>Times Square</name>
    <description/>
    <Style id="icon-1899-000000-nodesc-normal">
      <IconStyle>
        <color>ff000000</color>
        <scale>1</scale>
        <Icon>
          <href>https://www.gstatic.com/mapspro/images/stock/503-wht-blank_maps.png</href>
        </Icon>
        <hotSpot x="32" xunits="pixels" y="64" yunits="insetPixels"/>
      </IconStyle>
      <LabelStyle>
        <scale>0</scale>
      </LabelStyle>
      <BalloonStyle>
        <text><![CDATA[<h3>$[name]</h3>]]></text>
      </BalloonStyle>
    </Style>
    <Style id="icon-1899-000000-nodesc-highlight">
      <IconStyle>
        <color>ff000000</color>
        <scale>1</scale>
        <Icon>
          <href>https://www.gstatic.com/mapspro/images/stock/503-wht-blank_maps.png</href>
        </Icon>
        <hotSpot x="32" xunits="pixels" y="64" yunits="insetPixels"/>
      </IconStyle>
      <LabelStyle>
        <scale>1</scale>
      </LabelStyle>
      <BalloonStyle>
        <text><![CDATA[<h3>$[name]</h3>]]></text>
      </BalloonStyle>
    </Style>
    <StyleMap id="icon-1899-000000-nodesc">
      <Pair>
        <key>normal</key>
        <styleUrl>#icon-1899-000000-nodesc-normal</styleUrl>
      </Pair>
      <Pair>
        <key>highlight</key>
        <styleUrl>#icon-1899-000000-nodesc-highlight</styleUrl>
      </Pair>
    </StyleMap>
    <Style id="icon-1899-0F9D58-nodesc-normal">
      <IconStyle>
        <color>ff589d0f</color>
        <scale>1</scale>
        <Icon>
          <href>https://www.gstatic.com/mapspro/images/stock/503-wht-blank_maps.png</href>
        </Icon>
        <hotSpot x="32" xunits="pixels" y="64" yunits="insetPixels"/>
      </IconStyle>
      <LabelStyle>
        <scale>0</scale>
      </LabelStyle>
      <BalloonStyle>
        <text><![CDATA[<h3>$[name]</h3>]]></text>
      </BalloonStyle>
    </Style>
    <Style id="icon-1899-0F9D58-nodesc-highlight">
      <IconStyle>
        <color>ff589d0f</color>
        <scale>1</scale>
        <Icon>
          <href>https://www.gstatic.com/mapspro/images/stock/503-wht-blank_maps.png</href>
        </Icon>
        <hotSpot x="32" xunits="pixels" y="64" yunits="insetPixels"/>
      </IconStyle>
      <LabelStyle>
        <scale>1</scale>
      </LabelStyle>
      <BalloonStyle>
        <text><![CDATA[<h3>$[name]</h3>]]></text>
      </BalloonStyle>
    </Style>
    <StyleMap id="icon-1899-0F9D58-nodesc">
      <Pair>
        <key>normal</key>
        <styleUrl>#icon-1899-0F9D58-nodesc-normal</styleUrl>
      </Pair>
      <Pair>
        <key>highlight</key>
        <styleUrl>#icon-1899-0F9D58-nodesc-highlight</styleUrl>
      </Pair>
    </StyleMap>
    <Style id="icon-1899-880E4F-nodesc-normal">
      <IconStyle>
        <color>ff4f0e88</color>
        <scale>1</scale>
        <Icon>
          <href>https://www.gstatic.com/mapspro/images/stock/503-wht-blank_maps.png</href>
        </Icon>
        <hotSpot x="32" xunits="pixels" y="64" yunits="insetPixels"/>
      </IconStyle>
      <LabelStyle>
        <scale>0</scale>
      </LabelStyle>
      <BalloonStyle>
        <text><![CDATA[<h3>$[name]</h3>]]></text>
      </BalloonStyle>
    </Style>
    <Style id="icon-1899-880E4F-nodesc-highlight">
      <IconStyle>
        <color>ff4f0e88</color>
        <scale>1</scale>
        <Icon>
          <href>https://www.gstatic.com/mapspro/images/stock/503-wht-blank_maps.png</href>
        </Icon>
        <hotSpot x="32" xunits="pixels" y="64" yunits="insetPixels"/>
      </IconStyle>
      <LabelStyle>
        <scale>1</scale>
      </LabelStyle>
      <BalloonStyle>
        <text><![CDATA[<h3>$[name]</h3>]]></text>
      </BalloonStyle>
    </Style>
    <StyleMap id="icon-1899-880E4F-nodesc">
      <Pair>
        <key>normal</key>
        <styleUrl>#icon-1899-880E4F-nodesc-normal</styleUrl>
      </Pair>
      <Pair>
        <key>highlight</key>
        <styleUrl>#icon-1899-880E4F-nodesc-highlight</styleUrl>
      </Pair>
    </StyleMap>
    <Style id="icon-1899-F9A825-nodesc-normal">
      <IconStyle>
        <color>ff25a8f9</color>
        <scale>1</scale>
        <Icon>
          <href>https://www.gstatic.com/mapspro/images/stock/503-wht-blank_maps.png</href>
        </Icon>
        <hotSpot x="32" xunits="pixels" y="64" yunits="insetPixels"/>
      </IconStyle>
      <LabelStyle>
        <scale>0</scale>
      </LabelStyle>
      <BalloonStyle>
        <text><![CDATA[<h3>$[name]</h3>]]></text>
      </BalloonStyle>
    </Style>
    <Style id="icon-1899-F9A825-nodesc-highlight">
      <IconStyle>
        <color>ff25a8f9</color>
        <scale>1</scale>
        <Icon>
          <href>https://www.gstatic.com/mapspro/images/stock/503-wht-blank_maps.png</href>
        </Icon>
        <hotSpot x="32" xunits="pixels" y="64" yunits="insetPixels"/>
      </IconStyle>
      <LabelStyle>
        <scale>1</scale>
      </LabelStyle>
      <BalloonStyle>
        <text><![CDATA[<h3>$[name]</h3>]]></text>
      </BalloonStyle>
    </Style>
    <StyleMap id="icon-1899-F9A825-nodesc">
      <Pair>
        <key>normal</key>
        <styleUrl>#icon-1899-F9A825-nodesc-normal</styleUrl>
      </Pair>
      <Pair>
        <key>highlight</key>
        <styleUrl>#icon-1899-F9A825-nodesc-highlight</styleUrl>
      </Pair>
    </StyleMap>
    <Style id="icon-1899-FBC02D-nodesc-normal">
      <IconStyle>
        <color>ff2dc0fb</color>
        <scale>1</scale>
        <Icon>
          <href>https://www.gstatic.com/mapspro/images/stock/503-wht-blank_maps.png</href>
        </Icon>
        <hotSpot x="32" xunits="pixels" y="64" yunits="insetPixels"/>
      </IconStyle>
      <LabelStyle>
        <scale>0</scale>
      </LabelStyle>
      <BalloonStyle>
        <text><![CDATA[<h3>$[name]</h3>]]></text>
      </BalloonStyle>
    </Style>
    <Style id="icon-1899-FBC02D-nodesc-highlight">
      <IconStyle>
        <color>ff2dc0fb</color>
        <scale>1</scale>
        <Icon>
          <href>https://www.gstatic.com/mapspro/images/stock/503-wht-blank_maps.png</href>
        </Icon>
        <hotSpot x="32" xunits="pixels" y="64" yunits="insetPixels"/>
      </IconStyle>
      <LabelStyle>
        <scale>1</scale>
      </LabelStyle>
      <BalloonStyle>
        <text><![CDATA[<h3>$[name]</h3>]]></text>
      </BalloonStyle>
    </Style>
    <StyleMap id="icon-1899-FBC02D-nodesc">
      <Pair>
        <key>normal</key>
        <styleUrl>#icon-1899-FBC02D-nodesc-normal</styleUrl>
      </Pair>
      <Pair>
        <key>highlight</key>
        <styleUrl>#icon-1899-FBC02D-nodesc-highlight</styleUrl>
      </Pair>
    </StyleMap>
    <Folder>
      <name>New Hotels (2023-2025)</name>
      <Placemark>
        <name>Tempo by Hilton New York Times Square</name>
        <styleUrl>#icon-1899-000000-nodesc</styleUrl>
        <Point>
          <coordinates>
            -73.9844793,40.7589416,0
          </coordinates>
        </Point>
      </Placemark>
      <Placemark>
        <name>Delta Hotels New York Times Square</name>
        <styleUrl>#icon-1899-000000-nodesc</styleUrl>
        <Point>
          <coordinates>
            -73.9926904,40.756511,0
          </coordinates>
        </Point>
      </Placemark>
      <Placemark>
        <name><![CDATA[Romer Hell's Kitchen, neighborhood hotel]]></name>
        <styleUrl>#icon-1899-000000-nodesc</styleUrl>
        <Point>
          <coordinates>
            -73.9857242,40.7631305,0
          </coordinates>
        </Point>
      </Placemark>
      <Placemark>
        <name>Kimpton Theta New York - Times Square</name>
        <styleUrl>#icon-1899-000000-nodesc</styleUrl>
        <Point>
          <coordinates>
            -73.9864794,40.761369,0
          </coordinates>
        </Point>
      </Placemark>
      <Placemark>
        <name>Home2 Suites by Hilton New York Times Square</name>
        <styleUrl>#icon-1899-880E4F-nodesc</styleUrl>
        <Point>
          <coordinates>
            -73.9835758,40.7594476,0
          </coordinates>
        </Point>
      </Placemark>
      <Placemark>
        <name>SpringHill Suites New York Manhattan Times Square</name>
        <styleUrl>#icon-1899-000000-nodesc</styleUrl>
        <Point>
          <coordinates>
            -73.9862642,40.7593014,0
          </coordinates>
        </Point>
      </Placemark>
      <Placemark>
        <name>Palace Theatre</name>
        <styleUrl>#icon-1899-0F9D58-nodesc</styleUrl>
        <Point>
          <coordinates>
            -73.9840424,40.7588363,0
          </coordinates>
        </Point>
      </Placemark>
      <Placemark>
        <name>Motto by Hilton New York City Times Square</name>
        <styleUrl>#icon-1899-000000-nodesc</styleUrl>
        <Point>
          <coordinates>
            -73.983533,40.759318,0
          </coordinates>
        </Point>
      </Placemark>
    </Folder>
    <Folder>
      <name>Past Hotels</name>
      <Placemark>
        <name>Hilton New York Times Square</name>
        <styleUrl>#icon-1899-FBC02D-nodesc</styleUrl>
        <Point>
          <coordinates>
            -73.9888153,40.756649,0
          </coordinates>
        </Point>
      </Placemark>
      <Placemark>
        <name>The Westin New York at Times Square</name>
        <styleUrl>#icon-1899-F9A825-nodesc</styleUrl>
        <Point>
          <coordinates>
            -73.9891186,40.7577137,0
          </coordinates>
        </Point>
      </Placemark>
      <Placemark>
        <name>Hampton Inn Manhattan/Times Square South</name>
        <styleUrl>#icon-1899-F9A825-nodesc</styleUrl>
        <Point>
          <coordinates>
            -73.9929037,40.7561859,0
          </coordinates>
        </Point>
      </Placemark>
      <Placemark>
        <name>New York Marriott Marquis</name>
        <styleUrl>#icon-1899-F9A825-nodesc</styleUrl>
        <Point>
          <coordinates>
            -73.9858202,40.7585862,0
          </coordinates>
        </Point>
      </Placemark>
    </Folder>
  </Document>
</kml>
